{
  "type": "FeatureCollection",
  "features": [
    {
      "type": "Feature",
      "properties": {
        "norad_id": 36048,
        "name": "COSMOS 2251 DEB",
        "group": "cosmos-2251-debris",
        "lat": -21.982628358556347,
        "lon": -79.98915165464553,
        "alt_km": 751.3556988718028,
        "timestamp": "2025-12-19T14:48:36.645243+00:00",
        "meta_object_name": "COSMOS 2251 DEB",
        "meta_object_id": "1993-036AXK",
        "meta_epoch": "2025-12-19T05:13:15.256416",
        "meta_mean_motion": 14.37862849,
        "meta_eccentricity": 0.00268811,
        "meta_inclination": 74.0569,
        "meta_ra_of_asc_node": 287.3716,
        "meta_arg_of_pericenter": 336.0846,
        "meta_mean_anomaly": 93.7282,
        "meta_ephemeris_type": 0,
        "meta_classification_type": "U",
        "meta_norad_cat_id": 36048,
        "meta_element_set_no": 999,
        "meta_rev_at_epoch": 85595,
        "meta_bstar": 0.00020859609,
        "meta_mean_motion_dot": 6.05e-06,
        "meta_mean_motion_ddot": 0,
        "tle_line1": "1 36048U 93036AXK 25353.21753769  .00000605  00000+0  20860-3 0  9999",
        "tle_line2": "2 36048  74.0569 287.3716 0026881 336.0846  93.7282 14.37862849855958"
      },
      "geometry": {
        "type": "Point",
        "coordinates": [
          -79.98915165464553,
          -21.982628358556347
        ]
      }
    },
    {
      "type": "Feature",
      "properties": {
        "norad_id": 36049,
        "name": "COSMOS 2251 DEB",
        "group": "cosmos-2251-debris",
        "lat": -33.37452063841371,
        "lon": 95.13614694383423,
        "alt_km": 696.6505098658636,
        "timestamp": "2025-12-19T14:48:36.645253+00:00",
        "meta_object_name": "COSMOS 2251 DEB",
        "meta_object_id": "1993-036AXL",
        "meta_epoch": "2025-12-19T00:11:29.887584",
        "meta_mean_motion": 14.62222603,
        "meta_eccentricity": 0.00103942,
        "meta_inclination": 74.0312,
        "meta_ra_of_asc_node": 107.1751,
        "meta_arg_of_pericenter": 195.1693,
        "meta_mean_anomaly": 164.9164,
        "meta_ephemeris_type": 0,
        "meta_classification_type": "U",
        "meta_norad_cat_id": 36049,
        "meta_element_set_no": 999,
        "meta_rev_at_epoch": 85456,
        "meta_bstar": 0.00099664593,
        "meta_mean_motion_dot": 4.999e-05,
        "meta_mean_motion_ddot": 0,
        "tle_line1": "1 36049U 93036AXL 25353.00798481  .00004999  00000+0  99665-3 0  9996",
        "tle_line2": "2 36049  74.0312 107.1751 0010394 195.1693 164.9164 14.62222603854561"
      },
      "geometry": {
        "type": "Point",
        "coordinates": [
          95.13614694383423,
          -33.37452063841371
        ]
      }
    },
    {
      "type": "Feature",
      "properties": {
        "norad_id": 36050,
        "name": "COSMOS 2251 DEB",
        "group": "cosmos-2251-debris",
        "lat": -71.88846342302689,
        "lon": 118.91115440126862,
        "alt_km": 512.7013182405699,
        "timestamp": "2025-12-19T14:48:36.645264+00:00",
        "meta_object_name": "COSMOS 2251 DEB",
        "meta_object_id": "1993-036AXM",
        "meta_epoch": "2025-12-15T21:35:48.459552",
        "meta_mean_motion": 15.01080492,
        "meta_eccentricity": 0.00887608,
        "meta_inclination": 74.0305,
        "meta_ra_of_asc_node": 187.588,
        "meta_arg_of_pericenter": 266.4769,
        "meta_mean_anomaly": 92.6264,
        "meta_ephemeris_type": 0,
        "meta_classification_type": "U",
        "meta_norad_cat_id": 36050,
        "meta_element_set_no": 999,
        "meta_rev_at_epoch": 67082,
        "meta_bstar": 0.00042445305,
        "meta_mean_motion_dot": 5.866e-05,
        "meta_mean_motion_ddot": 0,
        "tle_line1": "1 36050U 93036AXM 25349.89986643  .00005866  00000+0  42445-3 0  9997",
        "tle_line2": "2 36050  74.0305 187.5880 0088760 266.4769  92.6264 15.01080492670823"
      },
      "geometry": {
        "type": "Point",
        "coordinates": [
          118.91115440126862,
          -71.88846342302689
        ]
      }
    },
    {
      "type": "Feature",
      "properties": {
        "norad_id": 36053,
        "name": "COSMOS 2251 DEB",
        "group": "cosmos-2251-debris",
        "lat": -0.9262618890599233,
        "lon": -40.243601645033756,
        "alt_km": 706.5524085505967,
        "timestamp": "2025-12-19T14:48:36.645275+00:00",
        "meta_object_name": "COSMOS 2251 DEB",
        "meta_object_id": "1993-036AXQ",
        "meta_epoch": "2025-12-19T02:27:11.674944",
        "meta_mean_motion": 14.57252603,
        "meta_eccentricity": 0.00325446,
        "meta_inclination": 73.8697,
        "meta_ra_of_asc_node": 140.476,
        "meta_arg_of_pericenter": 87.3695,
        "meta_mean_anomaly": 273.1193,
        "meta_ephemeris_type": 0,
        "meta_classification_type": "U",
        "meta_norad_cat_id": 36053,
        "meta_element_set_no": 999,
        "meta_rev_at_epoch": 87537,
        "meta_bstar": 0.0010759038,
        "meta_mean_motion_dot": 4.872e-05,
        "meta_mean_motion_ddot": 0,
        "tle_line1": "1 36053U 93036AXQ 25353.10221846  .00004872  00000+0  10759-2 0  9994",
        "tle_line2": "2 36053  73.8697 140.4760 0032544  87.3695 273.1193 14.57252603875378"
      },
      "geometry": {
        "type": "Point",
        "coordinates": [
          -40.243601645033756,
          -0.9262618890599233
        ]
      }
    },
    {
      "type": "Feature",
      "properties": {
        "norad_id": 36058,
        "name": "COSMOS 2251 DEB",
        "group": "cosmos-2251-debris",
        "lat": -15.974750478519098,
        "lon": 15.650201472875672,
        "alt_km": 732.6016236730702,
        "timestamp": "2025-12-19T14:48:36.645285+00:00",
        "meta_object_name": "COSMOS 2251 DEB",
        "meta_object_id": "1993-036AXV",
        "meta_epoch": "2025-12-16T09:31:35.831136",
        "meta_mean_motion": 14.58710964,
        "meta_eccentricity": 0.00443273,
        "meta_inclination": 74.0236,
        "meta_ra_of_asc_node": 26.4887,
        "meta_arg_of_pericenter": 159.9009,
        "meta_mean_anomaly": 200.3914,
        "meta_ephemeris_type": 0,
        "meta_classification_type": "U",
        "meta_norad_cat_id": 36058,
        "meta_element_set_no": 999,
        "meta_rev_at_epoch": 66164,
        "meta_bstar": 0.00034845634,
        "meta_mean_motion_dot": 1.618e-05,
        "meta_mean_motion_ddot": 0,
        "tle_line1": "1 36058U 93036AXV 25350.39694249  .00001618  00000+0  34846-3 0  9997",
        "tle_line2": "2 36058  74.0236  26.4887 0044327 159.9009 200.3914 14.58710964661641"
      },
      "geometry": {
        "type": "Point",
        "coordinates": [
          15.650201472875672,
          -15.974750478519098
        ]
      }
    },
    {
      "type": "Feature",
      "properties": {
        "norad_id": 36060,
        "name": "COSMOS 2251 DEB",
        "group": "cosmos-2251-debris",
        "lat": -12.60026697339514,
        "lon": 45.48376058938421,
        "alt_km": 762.2432375062208,
        "timestamp": "2025-12-19T14:48:36.645321+00:00",
        "meta_object_name": "COSMOS 2251 DEB",
        "meta_object_id": "1993-036AXX",
        "meta_epoch": "2025-12-18T07:56:47.942016",
        "meta_mean_motion": 14.4201191,
        "meta_eccentricity": 0.00154616,
        "meta_inclination": 74.0282,
        "meta_ra_of_asc_node": 224.1973,
        "meta_arg_of_pericenter": 320.5439,
        "meta_mean_anomaly": 39.459,
        "meta_ephemeris_type": 0,
        "meta_classification_type": "U",
        "meta_norad_cat_id": 36060,
        "meta_element_set_no": 999,
        "meta_rev_at_epoch": 85090,
        "meta_bstar": 0.00025465376,
        "meta_mean_motion_dot": 8.1e-06,
        "meta_mean_motion_ddot": 0,
        "tle_line1": "1 36060U 93036AXX 25352.33111044  .00000810  00000+0  25465-3 0  9993",
        "tle_line2": "2 36060  74.0282 224.1973 0015461 320.5439  39.4590 14.42011910850906"
      },
      "geometry": {
        "type": "Point",
        "coordinates": [
          45.48376058938421,
          -12.60026697339514
        ]
      }
    },
    {
      "type": "Feature",
      "properties": {
        "norad_id": 36061,
        "name": "COSMOS 2251 DEB",
        "group": "cosmos-2251-debris",
        "lat": 9.602289758558362,
        "lon": 164.39682290973036,
        "alt_km": 783.568305580392,
        "timestamp": "2025-12-19T14:48:36.645333+00:00",
        "meta_object_name": "COSMOS 2251 DEB",
        "meta_object_id": "1993-036AXY",
        "meta_epoch": "2025-12-15T17:55:08.095872",
        "meta_mean_motion": 14.33713146,
        "meta_eccentricity": 0.00367991,
        "meta_inclination": 74.0242,
        "meta_ra_of_asc_node": 354.2562,
        "meta_arg_of_pericenter": 81.2237,
        "meta_mean_anomaly": 279.3079,
        "meta_ephemeris_type": 0,
        "meta_classification_type": "U",
        "meta_norad_cat_id": 36061,
        "meta_element_set_no": 999,
        "meta_rev_at_epoch": 65147,
        "meta_bstar": 0.00027590632,
        "meta_mean_motion_dot": 7.46e-06,
        "meta_mean_motion_ddot": 0,
        "tle_line1": "1 36061U 93036AXY 25349.74662148  .00000746  00000+0  27591-3 0  9991",
        "tle_line2": "2 36061  74.0242 354.2562 0036799  81.2237 279.3079 14.33713146651474"
      },
      "geometry": {
        "type": "Point",
        "coordinates": [
          164.39682290973036,
          9.602289758558362
        ]
      }
    }
  ]
}